start=new Date('2022-05-26T00:00:00.000Z').valueOf();
sats=[{"CLASSIFICATION_TYPE":"U","MEAN_MOTION_DDOT":"0.0000000000000","REF_FRAME":"TEME","MEAN_ELEMENT_THEORY":"SGP4","REV_AT_EPOCH":"130","APOAPSIS":"548.685","RCS_SIZE":"LARGE","EPHEMERIS_TYPE":"0","FILE":"3464394","EPOCH":"2022-05-25T22:00:00.999936","TIME_SYSTEM":"UTC","NORAD_CAT_ID":"48278","CENTER_NAME":"EARTH","TLE_LINE1":"1 48278U 21036C   22145.91667824  .00026451  00000-0  17890-2 0  9993","GP_ID":"204537518","RA_OF_ASC_NODE":"118.6893","PERIOD":"95.594","MEAN_ANOMALY":"325.7843","BSTAR":"0.00178900000000","COUNTRY_CODE":"US","SEMIMAJOR_AXIS":"6925.416","OBJECT_ID":"2021-036C","SITE":"AFETR","MEAN_MOTION":"15.06378054","MEAN_MOTION_DOT":"0.00026451","ECCENTRICITY":"0.00020270","ARG_OF_PERICENTER":"44.0856","TLE_LINE2":"2 48278  53.0509 118.6893 0002027  44.0856 325.7843 15.06378054  1302","LAUNCH_DATE":"2021-04-29","ELEMENT_SET_NO":"999","DECAY_DATE":null,"OBJECT_NAME":"STARLINK-2543","PERIAPSIS":"545.877","INCLINATION":"53.0509","OBJECT_TYPE":"PAYLOAD"},{"FILE":"3464394","EPOCH":"2022-05-25T22:00:00.999936","CLASSIFICATION_TYPE":"U","MEAN_MOTION_DDOT":"0.0000000000000","REF_FRAME":"TEME","MEAN_ELEMENT_THEORY":"SGP4","REV_AT_EPOCH":"130","RCS_SIZE":"LARGE","APOAPSIS":"548.496","EPHEMERIS_TYPE":"0","CENTER_NAME":"EARTH","TLE_LINE1":"1 48279U 21036D   22145.91667824  .00029468  00000-0  19895-2 0  9992","GP_ID":"204537769","TIME_SYSTEM":"UTC","NORAD_CAT_ID":"48279","SEMIMAJOR_AXIS":"6925.382","OBJECT_ID":"2021-036D","SITE":"AFETR","MEAN_ANOMALY":"0.0921","PERIOD":"95.593","RA_OF_ASC_NODE":"118.6271","BSTAR":"0.00198950000000","COUNTRY_CODE":"US","ELEMENT_SET_NO":"999","DECAY_DATE":null,"OBJECT_NAME":"STARLINK-2580","PERIAPSIS":"545.997","INCLINATION":"53.0528","OBJECT_TYPE":"PAYLOAD","MEAN_MOTION":"15.06389221","MEAN_MOTION_DOT":"0.00029468","ARG_OF_PERICENTER":"49.8198","ECCENTRICITY":"0.00018040","TLE_LINE2":"2 48279  53.0528 118.6271 0001804  49.8198   0.0921 15.06389221  1306","LAUNCH_DATE":"2021-04-29"},{"PERIOD":"95.593","RA_OF_ASC_NODE":"190.7683","MEAN_ANOMALY":"296.0261","COUNTRY_CODE":"US","BSTAR":"0.00005321400000","OBJECT_ID":"2021-036E","SITE":"AFETR","SEMIMAJOR_AXIS":"6925.391","ARG_OF_PERICENTER":"64.0869","ECCENTRICITY":"0.00013690","MEAN_MOTION_DOT":"0.00000511","MEAN_MOTION":"15.06386042","LAUNCH_DATE":"2021-04-29","TLE_LINE2":"2 48280  53.0548 190.7683 0001369  64.0869 296.0261 15.06386042 59460","OBJECT_NAME":"STARLINK-2565","DECAY_DATE":null,"ELEMENT_SET_NO":"999","OBJECT_TYPE":"PAYLOAD","INCLINATION":"53.0548","PERIAPSIS":"546.308","MEAN_ELEMENT_THEORY":"SGP4","REF_FRAME":"TEME","MEAN_MOTION_DDOT":"0.0000000000000","CLASSIFICATION_TYPE":"U","EPHEMERIS_TYPE":"0","APOAPSIS":"548.204","RCS_SIZE":"LARGE","REV_AT_EPOCH":"5946","FILE":"3463908","EPOCH":"2022-05-25T10:28:45.162912","TIME_SYSTEM":"UTC","NORAD_CAT_ID":"48280","TLE_LINE1":"1 48280U 21036E   22145.43663383  .00000511  00000-0  53214-4 0  9990","CENTER_NAME":"EARTH","GP_ID":"204503129"},{"APOAPSIS":"548.542","RCS_SIZE":"LARGE","EPHEMERIS_TYPE":"0","REV_AT_EPOCH":"6032","REF_FRAME":"TEME","MEAN_ELEMENT_THEORY":"SGP4","CLASSIFICATION_TYPE":"U","MEAN_MOTION_DDOT":"0.0000000000000","EPOCH":"2022-05-25T10:47:19.546656","FILE":"3463339","NORAD_CAT_ID":"48281","TIME_SYSTEM":"UTC","GP_ID":"204469807","CENTER_NAME":"EARTH","TLE_LINE1":"1 48281U 21036F   22145.44953179  .00000533  00000-0  54693-4 0  9993","COUNTRY_CODE":"US","BSTAR":"0.00005469300000","PERIOD":"95.593","RA_OF_ASC_NODE":"170.7187","MEAN_ANOMALY":"307.7644","SITE":"AFETR","OBJECT_ID":"2021-036F","SEMIMAJOR_AXIS":"6925.385","TLE_LINE2":"2 48281  53.0533 170.7187 0001866  52.3514 307.7644 15.06388155 60320","LAUNCH_DATE":"2021-04-29","MEAN_MOTION_DOT":"0.00000533","ECCENTRICITY":"0.00018660","ARG_OF_PERICENTER":"52.3514","MEAN_MOTION":"15.06388155","OBJECT_TYPE":"PAYLOAD","PERIAPSIS":"545.958","INCLINATION":"53.0533","DECAY_DATE":null,"OBJECT_NAME":"STARLINK-2520","ELEMENT_SET_NO":"999"},{"MEAN_MOTION_DDOT":"0.0000000000000","CLASSIFICATION_TYPE":"U","MEAN_ELEMENT_THEORY":"SGP4","REF_FRAME":"TEME","REV_AT_EPOCH":"5969","EPHEMERIS_TYPE":"0","APOAPSIS":"548.293","RCS_SIZE":"LARGE","FILE":"3463908","EPOCH":"2022-05-25T12:56:42.700704","TIME_SYSTEM":"UTC","NORAD_CAT_ID":"48282","TLE_LINE1":"1 48282U 21036G   22145.53938311 -.00000038  00000-0  16344-4 0  9997","CENTER_NAME":"EARTH","GP_ID":"204502128","PERIOD":"95.593","MEAN_ANOMALY":"303.7464","RA_OF_ASC_NODE":"175.3182","BSTAR":"0.00001634400000","COUNTRY_CODE":"US","SEMIMAJOR_AXIS":"6925.372","SITE":"AFETR","OBJECT_ID":"2021-036G","MEAN_MOTION":"15.06392192","ARG_OF_PERICENTER":"56.3670","ECCENTRICITY":"0.00015240","MEAN_MOTION_DOT":"-0.00000038","LAUNCH_DATE":"2021-04-29","TLE_LINE2":"2 48282  53.0542 175.3182 0001524  56.3670 303.7464 15.06392192 59695","ELEMENT_SET_NO":"999","OBJECT_NAME":"STARLINK-2558","DECAY_DATE":null,"INCLINATION":"53.0542","PERIAPSIS":"546.182","OBJECT_TYPE":"PAYLOAD"},{"FILE":"3463908","EPOCH":"2022-05-25T09:40:19.291584","REF_FRAME":"TEME","MEAN_ELEMENT_THEORY":"SGP4","CLASSIFICATION_TYPE":"U","MEAN_MOTION_DDOT":"0.0000000000000","APOAPSIS":"548.467","RCS_SIZE":"MEDIUM","EPHEMERIS_TYPE":"0","REV_AT_EPOCH":"5967","CENTER_NAME":"EARTH","TLE_LINE1":"1 48283U 21036H   22145.40300106  .00002802  00000-0  20695-3 0  9992","GP_ID":"204503379","TIME_SYSTEM":"UTC","NORAD_CAT_ID":"48283","SITE":"AFETR","OBJECT_ID":"2021-036H","SEMIMAJOR_AXIS":"6925.375","PERIOD":"95.593","MEAN_ANOMALY":"305.4245","RA_OF_ASC_NODE":"175.9332","COUNTRY_CODE":"US","BSTAR":"0.00020695000000","DECAY_DATE":null,"OBJECT_NAME":"STARLINK-2516","ELEMENT_SET_NO":"999","OBJECT_TYPE":"PAYLOAD","PERIAPSIS":"546.012","INCLINATION":"53.0543","MEAN_MOTION_DOT":"0.00002802","ARG_OF_PERICENTER":"54.6909","ECCENTRICITY":"0.00017720","MEAN_MOTION":"15.06391529","LAUNCH_DATE":"2021-04-29","TLE_LINE2":"2 48283  53.0543 175.9332 0001772  54.6909 305.4245 15.06391529 59678"},{"REV_AT_EPOCH":"5969","APOAPSIS":"548.437","RCS_SIZE":"LARGE","EPHEMERIS_TYPE":"0","CLASSIFICATION_TYPE":"U","MEAN_MOTION_DDOT":"0.0000000000000","REF_FRAME":"TEME","MEAN_ELEMENT_THEORY":"SGP4","EPOCH":"2022-05-25T14:21:37.550592","FILE":"3464394","NORAD_CAT_ID":"48284","TIME_SYSTEM":"UTC","GP_ID":"204538520","CENTER_NAME":"EARTH","TLE_LINE1":"1 48284U 21036J   22145.59835128  .00000775  00000-0  70939-4 0  9994","BSTAR":"0.00007093900000","COUNTRY_CODE":"US","MEAN_ANOMALY":"310.3739","PERIOD":"95.593","RA_OF_ASC_NODE":"175.0385","SEMIMAJOR_AXIS":"6925.370","SITE":"AFETR","OBJECT_ID":"2021-036J","LAUNCH_DATE":"2021-04-29","TLE_LINE2":"2 48284  53.0538 175.0385 0001736  49.7401 310.3739 15.06392970 59690","MEAN_MOTION":"15.06392970","MEAN_MOTION_DOT":"0.00000775","ARG_OF_PERICENTER":"49.7401","ECCENTRICITY":"0.00017360","PERIAPSIS":"546.033","INCLINATION":"53.0538","OBJECT_TYPE":"PAYLOAD","ELEMENT_SET_NO":"999","DECAY_DATE":null,"OBJECT_NAME":"STARLINK-2564"},{"EPHEMERIS_TYPE":"0","RCS_SIZE":"LARGE","APOAPSIS":"548.906","REV_AT_EPOCH":"5966","MEAN_ELEMENT_THEORY":"SGP4","REF_FRAME":"TEME","MEAN_MOTION_DDOT":"0.0000000000000","CLASSIFICATION_TYPE":"U","EPOCH":"2022-05-25T09:29:43.882656","FILE":"3463908","NORAD_CAT_ID":"48285","TIME_SYSTEM":"UTC","GP_ID":"204502379","TLE_LINE1":"1 48285U 21036K   22145.39564679  .00017973  00000-0  12256-2 0  9997","CENTER_NAME":"EARTH","COUNTRY_CODE":"US","BSTAR":"0.00122560000000","RA_OF_ASC_NODE":"175.9639","PERIOD":"95.598","MEAN_ANOMALY":"303.8048","SITE":"AFETR","OBJECT_ID":"2021-036K","SEMIMAJOR_AXIS":"6925.647","LAUNCH_DATE":"2021-04-29","TLE_LINE2":"2 48285  53.0550 175.9639 0002013  56.3132 303.8048 15.06302678 59663","ARG_OF_PERICENTER":"56.3132","ECCENTRICITY":"0.00020130","MEAN_MOTION_DOT":"0.00017973","MEAN_MOTION":"15.06302678","OBJECT_TYPE":"PAYLOAD","INCLINATION":"53.0550","PERIAPSIS":"546.118","OBJECT_NAME":"STARLINK-2548","DECAY_DATE":null,"ELEMENT_SET_NO":"999"},{"NORAD_CAT_ID":"48286","TIME_SYSTEM":"UTC","GP_ID":"204470349","CENTER_NAME":"EARTH","TLE_LINE1":"1 48286U 21036L   22145.45829304 -.00001392  00000-0 -74604-4 0  9991","REV_AT_EPOCH":"6025","RCS_SIZE":"LARGE","APOAPSIS":"548.372","EPHEMERIS_TYPE":"0","CLASSIFICATION_TYPE":"U","MEAN_MOTION_DDOT":"0.0000000000000","REF_FRAME":"TEME","MEAN_ELEMENT_THEORY":"SGP4","EPOCH":"2022-05-25T10:59:56.518656","FILE":"3463389","TLE_LINE2":"2 48286  53.0537 175.6890 0001629  48.6462 311.4666 15.06390075 60253","LAUNCH_DATE":"2021-04-29","MEAN_MOTION":"15.06390075","MEAN_MOTION_DOT":"-0.00001392","ARG_OF_PERICENTER":"48.6462","ECCENTRICITY":"0.00016290","PERIAPSIS":"546.116","INCLINATION":"53.0537","OBJECT_TYPE":"PAYLOAD","ELEMENT_SET_NO":"999","DECAY_DATE":null,"OBJECT_NAME":"STARLINK-2547","BSTAR":"-0.00007460400000","COUNTRY_CODE":"US","PERIOD":"95.593","MEAN_ANOMALY":"311.4666","RA_OF_ASC_NODE":"175.6890","SEMIMAJOR_AXIS":"6925.379","OBJECT_ID":"2021-036L","SITE":"AFETR"},{"GP_ID":"204469848","CENTER_NAME":"EARTH","TLE_LINE1":"1 48287U 21036M   22145.45459699  .00002523  00000-0  18825-3 0  9995","NORAD_CAT_ID":"48287","TIME_SYSTEM":"UTC","EPOCH":"2022-05-25T10:54:37.179936","FILE":"3463389","REV_AT_EPOCH":"6025","APOAPSIS":"548.513","RCS_SIZE":"LARGE","EPHEMERIS_TYPE":"0","CLASSIFICATION_TYPE":"U","MEAN_MOTION_DDOT":"0.0000000000000","REF_FRAME":"TEME","MEAN_ELEMENT_THEORY":"SGP4","PERIAPSIS":"545.943","INCLINATION":"53.0547","OBJECT_TYPE":"PAYLOAD","ELEMENT_SET_NO":"999","DECAY_DATE":null,"OBJECT_NAME":"STARLINK-2566","LAUNCH_DATE":"2021-04-29","TLE_LINE2":"2 48287  53.0547 175.6906 0001856  45.1416 314.9723 15.06395292 60254","MEAN_MOTION":"15.06395292","MEAN_MOTION_DOT":"0.00002523","ARG_OF_PERICENTER":"45.1416","ECCENTRICITY":"0.00018560","SEMIMAJOR_AXIS":"6925.363","OBJECT_ID":"2021-036M","SITE":"AFETR","BSTAR":"0.00018825000000","COUNTRY_CODE":"US","PERIOD":"95.592","MEAN_ANOMALY":"314.9723","RA_OF_ASC_NODE":"175.6906"}];
